SL-14 R/B               
1 16792U 86046B   26015.79807281  .00000341  00000+0  36499-4 0  9997
2 16792  82.4835 130.1514 0024144  45.5752 314.7435 14.85528153118554
SL-14 R/B               
1 16882U 86055B   26015.38408896  .00000406  00000+0  44002-4 0  9992
2 16882  82.5206 176.7574 0019762 145.0145 238.4366 14.85571579111458
AJISAI (EGS)            
1 16908U 86061A   26015.96050330 -.00000062  00000+0  25204-3 0  9999
2 16908  50.0078 255.4921 0011301 151.8580 307.3996 12.44514979461439
COSMOS 1812             
1 17295U 87003A   26015.68579014  .00113528  00000+0  49937-3 0  9990
2 17295  82.4838 255.0444 0002756  48.0022 312.1481 15.84224290136017
SL-14 R/B               
1 17567U 87024B   26015.78337344  .00000353  00000+0  37426-4 0  9996
2 17567  82.5301 142.4756 0019693  77.2118 283.1298 14.86068204 80279
COSMOS 1833             
1 17589U 87027A   26015.55570600  .00000298  00000+0  18504-3 0  9995
2 17589  70.9192  77.6952 0024126 285.0802  74.7650 14.13044296  2810
SL-16 R/B               
1 17590U 87027B   26015.47148233 -.00000089  00000+0 -20378-4 0  9994
2 17590  71.0033  28.6371 0006447 223.8020 136.2593 14.17160368  7804
SL-14 R/B               
1 17912U 87038B   26015.41423672  .00000382  00000+0  41536-4 0  9994
2 17912  82.5025 346.9801 0018884 345.6201  14.4475 14.85300997 71329
COSMOS 1844             
1 17973U 87041A   26015.78833485 -.00000273  00000+0 -11684-3 0  9993
2 17973  70.8996 145.7585 0028277 102.8318 257.5965 14.14537573996106
SL-14 R/B               
1 18153U 87055B   26016.00651134  .00000324  00000+0  34592-4 0  9993
2 18153  82.4976  38.6874 0020518 183.4758 176.6319 14.85559158 62118
COSMOS 1867             
1 18187U 87060A   26015.62576379 -.00000059  00000+0  15433-4 0  9999
2 18187  65.0111  95.3092 0013859 274.4219  85.5282 14.31492657 12346
SL-14 R/B               
1 18749U 88001B   26015.93097798  .00000301  00000+0  31982-4 0  9992
2 18749  82.5113 244.9891 0019352  55.5459 304.7582 14.85461928 34195
